IRIDIUM 159             
1 43578U 18061K   23306.91238426  .00000036  00000+0  59512-5 0  9997
2 43578  86.3930  96.7947 0001955  90.7029 269.4391 14.34215578276174
IRIDIUM 180             
1 43922U 19002A   23306.77235127  .00000538  00000+0  18490-3 0  9990
2 43922  86.4013  33.7126 0002334  91.3956 268.7507 14.34219013251765
IRIDIUM 176             
1 43923U 19002B   23306.76578517  .00001731  00000+0  27067-3 0  9999
2 43923  86.6141  33.7483 0002361  92.9441 267.2046 14.72245636258381
IRIDIUM 168             
1 43924U 19002C   23307.32415043  .00000502  00000+0  17210-3 0  9991
2 43924  86.4014  33.5323 0002265  91.5294 268.6161 14.34214757251827
IRIDIUM 173             
1 43925U 19002D   23306.75331648  .00000108  00000+0  31446-4 0  9996
2 43925  86.4013  33.6988 0002084  91.0650 269.0785 14.34213270251720
IRIDIUM 169             
1 43926U 19002E   23306.88658763  .00000632  00000+0  20015-3 0  9992
2 43926  86.4226  65.2529 0001225 231.3179 128.7910 14.38608503252598
IRIDIUM 172             
1 43927U 19002F   23306.74697910  .00000530  00000+0  18201-3 0  9996
2 43927  86.4013  33.7065 0002171  91.7392 268.4052 14.34217176251736
IRIDIUM 175             
1 43928U 19002G   23307.23547748  .00001734  00000+0  27106-3 0  9996
2 43928  86.1554  19.5328 0002219  93.9031 266.2439 14.72236942258449
